{
  "type": "FeatureCollection",
  "features": [
    {
      "type": "Feature",
      "geometry": {
        "type": "Point",
        "coordinates": [
          76.90393315993367,
          43.20424640133294
        ]
      },
      "properties": {
        "text": "Переход в велополосу",
        "id": "comment-f440ab48-2d3c-4901-a0b6-76258d3b7c6a",
        "popupOffset": [
          76.90378412553889,
          43.204165630407005
        ]
      }
    },
    {
      "type": "Feature",
      "geometry": {
        "type": "LineString",
        "coordinates": [
          [
            76.90403644051372,
            43.203836887825844
          ],
          [
            76.90405827175209,
            43.20381205208258
          ],
          [
            76.90413040683188,
            43.203777729397814
          ],
          [
            76.90417937059345,
            43.20374523022019
          ],
          [
            76.90419444101269,
            43.20372595209034
          ]
        ]
      },
      "properties": {
        "color": "#d54e55",
        "type": "line",
        "id": "line-1768886834649-91881"
      }
    },
    {
      "type": "Feature",
      "geometry": {
        "type": "LineString",
        "coordinates": [
          [
            76.90417883374101,
            43.20385332254344
          ],
          [
            76.90415479878232,
            43.20384466031297
          ],
          [
            76.9040678623906,
            43.20374646725722
          ],
          [
            76.90403572653162,
            43.20372035040609
          ]
        ]
      },
      "properties": {
        "color": "#d54e55",
        "type": "line",
        "id": "line-1768886835178-1796"
      }
    }
  ]
}