{
  "type": "FeatureCollection",
  "features": [
    {
      "type": "Feature",
      "geometry": {
        "type": "Point",
        "coordinates": [
          76.82873906302831,
          43.24366083908373
        ]
      },
      "properties": {
        "text": "Вп?\nНет, оставляем как было",
        "id": "comment-cdbf437f-da39-486a-846f-3a859f8fcf93",
        "popupOffset": [
          76.82894490082936,
          43.24408911665731
        ],
        "resolved": true
      }
    },
    {
      "type": "Feature",
      "geometry": {
        "type": "Point",
        "coordinates": [
          76.82862286286263,
          43.24339054491139
        ]
      },
      "properties": {
        "text": "Вп?",
        "id": "comment-287d0a46-cf0e-4615-b652-6033f8ec8a79",
        "popupOffset": [
          76.8289583955825,
          43.243086533147874
        ],
        "resolved": true
      }
    },
    {
      "type": "Feature",
      "geometry": {
        "type": "Point",
        "coordinates": [
          76.82577727533055,
          43.242595687380685
        ]
      },
      "properties": {
        "text": "Доп полоса до арыка",
        "id": "comment-b4bdf985-f9a3-4267-aaea-8b00f90ff7af",
        "popupOffset": [
          76.82594440274545,
          43.24239782049122
        ],
        "resolved": true
      }
    },
    {
      "type": "Feature",
      "geometry": {
        "type": "Point",
        "coordinates": [
          76.83096242309563,
          43.24395010554221
        ]
      },
      "properties": {
        "text": "Доп полоса ВП",
        "id": "comment-f9d025a6-8a71-47bb-bab9-6f7ae807cc3e",
        "popupOffset": [
          76.83131306813351,
          43.24358326641587
        ],
        "resolved": true
      }
    },
    {
      "type": "Feature",
      "geometry": {
        "type": "Point",
        "coordinates": [
          76.82733420190078,
          43.24333946809918
        ]
      },
      "properties": {
        "text": "ВП?\nНет, оставляем как было",
        "id": "comment-b4d1a28d-4952-4137-8178-662c9e63133e",
        "popupOffset": [
          76.82755955151441,
          43.24360519515031
        ],
        "resolved": true
      }
    },
    {
      "type": "Feature",
      "geometry": {
        "type": "Point",
        "coordinates": [
          76.93610435829834,
          43.2698448988622
        ]
      },
      "properties": {
        "text": "УГМ предлагает срезать островок и добавить прямоходную полосу",
        "id": "comment-8982cd20-8d77-4089-8eed-487cbb22b257",
        "popupOffset": [
          76.93626648169925,
          43.27013734118921
        ],
        "replies": [
          {
            "id": "reply-1750058364172",
            "text": "Не нужно, прямой ход будет задерживать разворот"
          }
        ],
        "resolved": true
      }
    },
    {
      "type": "Feature",
      "geometry": {
        "type": "Point",
        "coordinates": [
          77.00254690325619,
          43.34497018314818
        ]
      },
      "properties": {
        "text": "Поправить разворот, не нанесли",
        "id": "comment-7ec41404-7982-4d30-86e0-0d13450e1760",
        "popupOffset": [
          77.00257972673813,
          43.34539507406171
        ]
      }
    },
    {
      "type": "Feature",
      "geometry": {
        "type": "Point",
        "coordinates": [
          76.86296265669796,
          43.255602984861525
        ]
      },
      "properties": {
        "text": "Реконструкция СО",
        "id": "comment-6252a12e-2700-437a-b884-d4d12fab3597",
        "popupOffset": [
          76.86205743520304,
          43.25637006758501
        ]
      }
    },
    {
      "type": "Feature",
      "geometry": {
        "type": "Point",
        "coordinates": [
          76.8618534238638,
          43.25480571996755
        ]
      },
      "properties": {
        "text": "Строительство СО",
        "id": "comment-e90db24f-d424-4524-a7a4-68f001f67072",
        "popupOffset": [
          76.86110120612688,
          43.25536346445955
        ]
      }
    },
    {
      "type": "Feature",
      "geometry": {
        "type": "Point",
        "coordinates": [
          76.85656850292537,
          43.25188670354055
        ]
      },
      "properties": {
        "text": "Строительство СО",
        "id": "comment-eb56ae42-9528-4ddf-ab1f-1cf1152d70f1",
        "popupOffset": [
          76.85614629038878,
          43.252599999401156
        ]
      }
    },
    {
      "type": "Feature",
      "geometry": {
        "type": "Point",
        "coordinates": [
          76.85299117602779,
          43.250916213641574
        ]
      },
      "properties": {
        "text": "Реконструкция СО",
        "id": "comment-eb122923-c23d-4ddb-aaf3-716805766574",
        "popupOffset": [
          76.85266117082949,
          43.251728492460046
        ]
      }
    },
    {
      "type": "Feature",
      "geometry": {
        "type": "Point",
        "coordinates": [
          76.90438963655788,
          43.20278229515529
        ]
      },
      "properties": {
        "text": "Хухры-мухры",
        "id": "comment-b88a7bbc-ab0c-49e5-8866-012ab4dc1b1f",
        "popupOffset": [
          76.90545521666388,
          43.2031303979482
        ]
      }
    },
    {
      "type": "Feature",
      "geometry": {
        "type": "LineString",
        "coordinates": [
          [
            76.82851329919527,
            43.243631368100665
          ],
          [
            76.82874243435003,
            43.24368149517733
          ]
        ]
      },
      "properties": {
        "color": "#d54e55",
        "type": "line",
        "id": "line-1747473850977-3224"
      }
    },
    {
      "type": "Feature",
      "geometry": {
        "type": "LineString",
        "coordinates": [
          [
            76.82865469302004,
            43.24364955305592
          ],
          [
            76.82859819350267,
            43.24362866399471
          ],
          [
            76.8286206339177,
            43.24363322806266
          ],
          [
            76.82865347835781,
            43.243631685047916
          ],
          [
            76.82868757589415,
            43.24362687270195
          ],
          [
            76.82868051345508,
            43.243624261568385
          ]
        ]
      },
      "properties": {
        "color": "#d54e55",
        "type": "line",
        "id": "line-1747473852260-66279"
      }
    },
    {
      "type": "Feature",
      "geometry": {
        "type": "LineString",
        "coordinates": [
          [
            76.82862884285208,
            43.243645470223726
          ],
          [
            76.828647600848,
            43.24361756760064
          ]
        ]
      },
      "properties": {
        "color": "#d54e55",
        "type": "line",
        "id": "line-1747473852795-2936"
      }
    },
    {
      "type": "Feature",
      "geometry": {
        "type": "LineString",
        "coordinates": [
          [
            76.8283383656007,
            43.24327570413982
          ],
          [
            76.82863395044257,
            43.24335481487043
          ]
        ]
      },
      "properties": {
        "color": "#d54e55",
        "type": "line",
        "id": "line-1747473872307-29149"
      }
    },
    {
      "type": "Feature",
      "geometry": {
        "type": "LineString",
        "coordinates": [
          [
            76.82845878375832,
            43.24336287112942
          ],
          [
            76.82855890848475,
            43.24337373891606
          ],
          [
            76.8284955192155,
            43.243341853803
          ]
        ]
      },
      "properties": {
        "color": "#d54e55",
        "type": "line",
        "id": "line-1747473873424-44318"
      }
    },
    {
      "type": "Feature",
      "geometry": {
        "type": "LineString",
        "coordinates": [
          [
            76.82849815833441,
            43.24336898015011
          ],
          [
            76.82851486884533,
            43.24334578926758
          ]
        ]
      },
      "properties": {
        "color": "#d54e55",
        "type": "line",
        "id": "line-1747473874042-96477"
      }
    },
    {
      "type": "Feature",
      "geometry": {
        "type": "LineString",
        "coordinates": [
          [
            76.82625625369843,
            43.24277720144664
          ],
          [
            76.82624196507624,
            43.2427647240778
          ],
          [
            76.82614008126046,
            43.24273494232514
          ],
          [
            76.82572532786912,
            43.2426399511518
          ],
          [
            76.82564610461446,
            43.24261473787817
          ],
          [
            76.82556022524625,
            43.242600622850205
          ],
          [
            76.82543701209352,
            43.242564052821706
          ],
          [
            76.82525649681514,
            43.24253832256056
          ],
          [
            76.82505349839039,
            43.242489576927625
          ],
          [
            76.82499199540717,
            43.24248321982034
          ]
        ]
      },
      "properties": {
        "color": "#d54e55",
        "type": "line",
        "id": "line-1747478501927-35655"
      }
    },
    {
      "type": "Feature",
      "geometry": {
        "type": "LineString",
        "coordinates": [
          [
            76.8256015824752,
            43.24265872146768
          ],
          [
            76.82567583566674,
            43.242655919793606
          ],
          [
            76.82559812104813,
            43.242610040099265
          ]
        ]
      },
      "properties": {
        "color": "#d54e55",
        "type": "line",
        "id": "line-1747478505448-75626"
      }
    },
    {
      "type": "Feature",
      "geometry": {
        "type": "LineString",
        "coordinates": [
          [
            76.82562252720948,
            43.24266010061447
          ],
          [
            76.82564382677168,
            43.2426245862209
          ]
        ]
      },
      "properties": {
        "color": "#d54e55",
        "type": "line",
        "id": "line-1747478505914-81690"
      }
    },
    {
      "type": "Feature",
      "geometry": {
        "type": "LineString",
        "coordinates": [
          [
            76.83153086012254,
            43.24409136099237
          ],
          [
            76.83134537478128,
            43.24403761708274
          ],
          [
            76.83121988378565,
            43.24401089603546
          ],
          [
            76.83095174353741,
            43.24392556067926
          ],
          [
            76.83080092953668,
            43.24389871034671
          ],
          [
            76.83066685941259,
            43.24385604260527
          ],
          [
            76.83044901034975,
            43.243807858350465
          ],
          [
            76.8302818072973,
            43.24375993253096
          ]
        ]
      },
      "properties": {
        "color": "#d54e55",
        "type": "line",
        "id": "line-1747478534419-77623"
      }
    },
    {
      "type": "Feature",
      "geometry": {
        "type": "LineString",
        "coordinates": [
          [
            76.8310340436164,
            43.2439940447876
          ],
          [
            76.83110773479217,
            43.244004280615115
          ],
          [
            76.83104259296874,
            43.243967689738895
          ],
          [
            76.8310168853609,
            43.243962151580206
          ]
        ]
      },
      "properties": {
        "color": "#d54e55",
        "type": "line",
        "id": "line-1747478535684-5032"
      }
    },
    {
      "type": "Feature",
      "geometry": {
        "type": "LineString",
        "coordinates": [
          [
            76.83103652864719,
            43.244008051946565
          ],
          [
            76.83105744360671,
            43.243967129416575
          ]
        ]
      },
      "properties": {
        "color": "#d54e55",
        "type": "line",
        "id": "line-1747478536183-33551"
      }
    },
    {
      "type": "Feature",
      "geometry": {
        "type": "LineString",
        "coordinates": [
          [
            76.82706659923417,
            43.24330048101996
          ],
          [
            76.82720462587326,
            43.24333126029413
          ],
          [
            76.82724406205517,
            43.24333331224514
          ],
          [
            76.8273060331993,
            43.243353831752074
          ],
          [
            76.8274187080072,
            43.243368195402496
          ]
        ]
      },
      "properties": {
        "color": "#d54e55",
        "type": "line",
        "id": "line-1747478668307-78195"
      }
    },
    {
      "type": "Feature",
      "geometry": {
        "type": "LineString",
        "coordinates": [
          [
            76.82724124518501,
            43.24333126029413
          ],
          [
            76.82717364030054,
            43.24329022125815
          ],
          [
            76.82727223075779,
            43.24329637711517
          ]
        ]
      },
      "properties": {
        "color": "#d54e55",
        "type": "line",
        "id": "line-1747478669337-86407"
      }
    },
    {
      "type": "Feature",
      "geometry": {
        "type": "LineString",
        "coordinates": [
          [
            76.82722152709408,
            43.243329208343
          ],
          [
            76.82723561144473,
            43.24328406540053
          ]
        ]
      },
      "properties": {
        "color": "#d54e55",
        "type": "line",
        "id": "line-1747478669954-40640"
      }
    },
    {
      "type": "Feature",
      "geometry": {
        "type": "LineString",
        "coordinates": [
          [
            76.93612813639697,
            43.2698260112594
          ],
          [
            76.93606544868186,
            43.2698260112594
          ],
          [
            76.93592710337867,
            43.26981027158607
          ]
        ]
      },
      "properties": {
        "color": "#d54e55",
        "type": "line",
        "id": "line-1750055126821-99732"
      }
    },
    {
      "type": "Feature",
      "geometry": {
        "type": "LineString",
        "coordinates": [
          [
            76.93621676385686,
            43.269857490593495
          ],
          [
            76.93613894462385,
            43.269844898861805
          ],
          [
            76.93616488436857,
            43.26986063852618
          ],
          [
            76.93613462133288,
            43.269846472828505
          ],
          [
            76.93617785424038,
            43.269835455061525
          ]
        ]
      },
      "properties": {
        "color": "#d54e55",
        "type": "line",
        "id": "line-1750055131216-79632"
      }
    },
    {
      "type": "Feature",
      "geometry": {
        "type": "LineString",
        "coordinates": [
          [
            76.93625783511942,
            43.26985906455985
          ],
          [
            76.93622973372868,
            43.26985591662745
          ],
          [
            76.9362124405659,
            43.26984804679515
          ],
          [
            76.93619730904913,
            43.26982443729216
          ],
          [
            76.93619730904913,
            43.26979295794098
          ],
          [
            76.93619082411328,
            43.26979295794098
          ],
          [
            76.93617569259544,
            43.269811845553676
          ],
          [
            76.93620163233902,
            43.26978823603659
          ],
          [
            76.9362254104388,
            43.269814993488325
          ]
        ]
      },
      "properties": {
        "color": "#d54e55",
        "type": "line",
        "id": "line-1750055133863-79608"
      }
    },
    {
      "type": "Feature",
      "geometry": {
        "type": "LineString",
        "coordinates": [
          [
            76.85148537507524,
            43.25117045795801
          ],
          [
            76.85170638754664,
            43.25079316943825
          ],
          [
            76.85196883987322,
            43.250259931088294
          ],
          [
            76.8520171863932,
            43.25011907472174
          ],
          [
            76.85208279924444,
            43.250028524165515
          ],
          [
            76.85236251829815,
            43.250174411244956
          ],
          [
            76.85280454297805,
            43.250342935374476
          ],
          [
            76.85358153976347,
            43.25056176463761
          ],
          [
            76.85411680421595,
            43.25074537945008
          ],
          [
            76.85435853654889,
            43.25080826108169
          ],
          [
            76.85479710796346,
            43.250898810478645
          ],
          [
            76.85536690560622,
            43.25104469537777
          ],
          [
            76.85582274414162,
            43.25119812574849
          ],
          [
            76.85618188911229,
            43.25129873557975
          ]
        ]
      },
      "properties": {
        "color": "#d54e55",
        "type": "line",
        "id": "line-1753692310382-26705"
      }
    },
    {
      "type": "Feature",
      "geometry": {
        "type": "LineString",
        "coordinates": [
          [
            76.8515130017326,
            43.25118051899145
          ],
          [
            76.85199646626768,
            43.25135155563652
          ],
          [
            76.85249719752989,
            43.25145719570838
          ],
          [
            76.85306354190612,
            43.25161565542436
          ],
          [
            76.85331218103602,
            43.25166596001608
          ],
          [
            76.85376456577814,
            43.25178417566215
          ],
          [
            76.85423421737937,
            43.251862147531
          ],
          [
            76.85448630924884,
            43.25191748235076
          ],
          [
            76.85472804158184,
            43.25195772583788
          ],
          [
            76.85531855935011,
            43.25207342569618
          ],
          [
            76.85545669211234,
            43.25211618427559
          ],
          [
            76.85553611855511,
            43.252128760323984
          ]
        ]
      },
      "properties": {
        "color": "#d54e55",
        "type": "line",
        "id": "line-1753692313096-76049"
      }
    },
    {
      "type": "Feature",
      "geometry": {
        "type": "LineString",
        "coordinates": [
          [
            76.85551018183901,
            43.25212285921117
          ],
          [
            76.85559651481469,
            43.252170648214616
          ],
          [
            76.85573464757692,
            43.252210891486385
          ],
          [
            76.8559487533845,
            43.25224107397034
          ],
          [
            76.85613523266568,
            43.252301438798014
          ],
          [
            76.85663941719315,
            43.25240204675865
          ],
          [
            76.85779282580847,
            43.25273656724602
          ],
          [
            76.85814506424623,
            43.25287993262708
          ],
          [
            76.85852147607488,
            43.253098752750844
          ]
        ]
      },
      "properties": {
        "color": "#d54e55",
        "type": "line",
        "id": "line-1753692331996-2501"
      }
    },
    {
      "type": "Feature",
      "geometry": {
        "type": "LineString",
        "coordinates": [
          [
            76.8561697658559,
            43.25128025804574
          ],
          [
            76.85625955209804,
            43.25132050209734
          ],
          [
            76.85639768486021,
            43.25135823072796
          ],
          [
            76.85680517661382,
            43.25145129450647
          ],
          [
            76.85760289326089,
            43.25170030253929
          ],
          [
            76.85792750530413,
            43.25182857894933
          ],
          [
            76.85843514309818,
            43.25207758543962
          ],
          [
            76.85892206129449,
            43.25225113473118
          ],
          [
            76.85910163377986,
            43.25233665165811
          ],
          [
            76.85927775326275,
            43.2524473203855
          ],
          [
            76.85985100390792,
            43.25289502370538
          ]
        ]
      },
      "properties": {
        "color": "#d54e55",
        "type": "line",
        "id": "line-1753692334859-40736"
      }
    },
    {
      "type": "Feature",
      "geometry": {
        "type": "LineString",
        "coordinates": [
          [
            76.85859318560597,
            43.25311321481644
          ],
          [
            76.85903866368432,
            43.253362216246245
          ],
          [
            76.85965335444865,
            43.25379733709153
          ],
          [
            76.86005048613896,
            43.254028729550555
          ],
          [
            76.86032675166331,
            43.254204788463596
          ],
          [
            76.86061683051526,
            43.254400967824466
          ],
          [
            76.86098633581219,
            43.25468769031673
          ]
        ]
      },
      "properties": {
        "color": "#d54e55",
        "type": "line",
        "id": "line-1753692343798-9100"
      }
    },
    {
      "type": "Feature",
      "geometry": {
        "type": "LineString",
        "coordinates": [
          [
            76.8598260204011,
            43.252881819022235
          ],
          [
            76.86004012634072,
            43.25300254753944
          ],
          [
            76.86048905781644,
            43.25334964045254
          ],
          [
            76.86129368099637,
            43.25388285170354
          ],
          [
            76.86144562708722,
            43.254006093377626
          ],
          [
            76.86180131905434,
            43.25425509089274
          ],
          [
            76.86202923832263,
            43.254438694546366
          ],
          [
            76.86215010448961,
            43.25451414792053
          ]
        ]
      },
      "properties": {
        "color": "#d54e55",
        "type": "line",
        "id": "line-1753692346577-79030"
      }
    },
    {
      "type": "Feature",
      "geometry": {
        "type": "LineString",
        "coordinates": [
          [
            76.86096871455987,
            43.25470919171818
          ],
          [
            76.86109994065714,
            43.254860097703045
          ],
          [
            76.86134512638858,
            43.2550411842179
          ],
          [
            76.86155577892976,
            43.25521472535209
          ],
          [
            76.86202197700163,
            43.255526594661745
          ],
          [
            76.86246745494799,
            43.255856067831814
          ],
          [
            76.86276444059678,
            43.25605978699562
          ],
          [
            76.86296473294482,
            43.25621823478417
          ],
          [
            76.86320646527781,
            43.25643452783552
          ],
          [
            76.86345165087727,
            43.256595489671696
          ],
          [
            76.86425627458289,
            43.25598433553665
          ],
          [
            76.8637210101316,
            43.255622167193195
          ],
          [
            76.8633445980389,
            43.25540084107686
          ],
          [
            76.86312358556751,
            43.2552524515703
          ],
          [
            76.86290257336009,
            43.25508142578468
          ],
          [
            76.86265393422912,
            43.25491291467068
          ],
          [
            76.86214629643405,
            43.25451049822988
          ],
          [
            76.86202543026917,
            43.25444007519462
          ]
        ]
      },
      "properties": {
        "color": "#d54e55",
        "type": "line",
        "id": "line-1753692383394-35966"
      }
    }
  ]
}